INTELSAT 902 (IS-902)   
1 26900U 01039A   26178.15466243 -.00000278  00000+0  00000+0 0  9991
2 26900   6.1414  71.6622 0004200  24.6956 184.4844  1.00271329 90790
INTELSAT 904 (IS-904)   
1 27380U 02007A   26178.17095506 -.00000221  00000+0  00000+0 0  9990
2 27380   6.9444  69.0666 0006526  11.3406 224.9345  1.00273021 51861
DIRECTV 5 (TEMPO 1)     
1 27426U 02023A   26178.14284719 -.00000050  00000+0  00000+0 0  9992
2 27426   4.9027  75.1906 0003549  24.8175 116.5711  1.00271616 88227
INTELSAT 905 (IS-905)   
1 27438U 02027A   26177.78103411  .00000098  00000+0  00000+0 0  9998
2 27438   6.7772  69.6863 0004138  26.4071 322.7696  1.00272022 51455
GALAXY 3C (G-3C)        
1 27445U 02030A   26178.19558528 -.00000145  00000+0  00000+0 0  9993
2 27445   3.7581  77.8503 0001986  25.2577 147.7750  1.00272390 46599
INTELSAT 906 (IS-906)   
1 27513U 02041A   26177.82086038  .00000019  00000+0  00000+0 0  9991
2 27513   5.8263  72.8033 0004205   7.3513 194.4364  1.00272159 87123
GALAXY 13 (HORIZONS-1)  
1 27954U 03044A   26178.13497204  .00000143  00000+0  00000+0 0  9998
2 27954   1.4443  83.7385 0001721   4.2564  85.8326  1.00269829 46673
INTELSAT 10-02          
1 28358U 04022A   26178.16445581  .00000000  00000+0  00000+0 0  9990
2 28358   0.0268 287.5242 0000178 181.8453 224.1091  1.00270753 80653
DIRECTV 8               
1 28659U 05019A   26178.06977535  .00000013  00000+0  00000+0 0  9993
2 28659   0.0220  69.5577 0003300  30.1755  81.5207  1.00271711 77177
GALAXY 28 (G-28)        
1 28702U 05022A   26178.19971308 -.00000192  00000+0  00000+0 0  9991
2 28702   3.3235  78.8111 0002275  17.0371 224.2616  1.00270977 52078
GALAXY 16 (G-16)        
1 29236U 06023A   26178.14501387 -.00000115  00000+0  00000+0 0  9992
2 29236   0.0433 124.0845 0002888 320.8515 143.5175  1.00272113 73078
DIRECTV 9S              
1 29494U 06043A   26178.14466719 -.00000104  00000+0  00000+0 0  9997
2 29494   2.4461  80.7924 0005423  18.9230 126.4222  1.00271903 51484
GALAXY 17 (G-17)        
1 31307U 07016B   26178.19003037 -.00000197  00000+0  00000+0 0  9991
2 31307   2.9969  79.7814 0004599  20.0086 158.9135  1.00271226 69907
INTELSAT 11 (IS-11)     
1 32253U 07044B   26178.18083589  .00000038  00000+0  00000+0 0  9995
2 32253   3.5910  78.5553 0003080  84.3941 259.3204  0.99047741 68547
HORIZONS-2              
1 32388U 07063B   26178.18447568 -.00000244  00000+0  00000+0 0  9996
2 32388   2.6274  80.5108 0004169   6.7343 180.6622  1.00271244 67911
DIRECTV 11              
1 32729U 08013A   26178.14501387 -.00000114  00000+0  00000+0 0  9993
2 32729   0.0102 268.2456 0000361 210.7766 109.2535  1.00270003 45692
GALAXY 18 (G-18)        
1 32951U 08024A   26178.10391876  .00000000  00000+0  00000+0 0  9991
2 32951   0.0262  19.9929 0003257  79.9945  89.6470  1.00269980 45953
GALAXY 19 (G-19)        
1 33376U 08045A   26178.14536052 -.00000127  00000+0  00000+0 0  9998
2 33376   0.0424 260.6553 0002928 203.9859 125.9473  1.00271298 65000
FM-5                    
1 35493U 09034A   26178.19003037 -.00000188  00000+0  00000+0 0  9993
2 35493   0.0266 288.2610 0000829  58.7185 270.5709  1.00271055 46742
INTELSAT 14 (IS-14)     
1 36097U 09064A   26178.20183661 -.00000262  00000+0  00000+0 0  9994
2 36097   0.0164  23.6686 0002689  71.9109 207.4003  1.00272388 60701
INTELSAT 15 (IS-15)     
1 36106U 09067A   26178.11027067 -.00000173  00000+0  00000+0 0  9996
2 36106   0.0141  46.2513 0002544  54.0730 299.7482  1.00271495 41329
DIRECTV 12              
1 36131U 09075A   26178.14432051 -.00000092  00000+0  00000+0 0  9999
2 36131   0.0157 165.5702 0000440 328.8472  90.0707  1.00270563 46655
INTELSAT 16 (IS-16)     
1 36397U 10006A   26178.19003037 -.00000233  00000+0  00000+0 0  9999
2 36397   0.0135  38.6810 0002425  70.9486 157.8845  1.00272223 59755
XM-5                    
1 37185U 10053A   26178.15530876 -.00000011  00000+0  00000+0 0  9993
2 37185   0.0659 271.3658 0002631 282.4194  22.2012  1.00271329 57589
INTELSAT 17 (IS-17)     
1 37238U 10065B   26178.10645733  .00000010  00000+0  00000+0 0  9997
2 37238   0.0115  76.4921 0002352  19.9904 283.0606  1.00270844 53341
INTELSAT 28 (IS-28)     
1 37392U 11016A   26178.19531133 -.00000215  00000+0  00000+0 0  9990
2 37392   1.8317  82.5099 0004030  12.5028 218.8759  1.00271509 53388
INTELSAT 18 (IS-18)     
1 37834U 11056A   26178.12899200  .00000065  00000+0  00000+0 0  9992
2 37834   0.0129 308.3484 0002097 152.2127  41.1149  1.00273244 53918
INTELSAT 22 (IS-22)     
1 38098U 12011A   26178.17892924  .00000000  00000+0  00000+0 0  9997
2 38098   0.0387  56.9895 0001782  72.9850 281.8416  1.00270723  7288
INTELSAT 19 (IS-19)     
1 38356U 12030A   26178.11989125 -.00000045  00000+0  00000+0 0  9999
2 38356   0.0167  20.7738 0003358  81.1360  22.4884  1.00271335 50551
INTELSAT 20 (IS-20)     
1 38740U 12043A   26178.17823588 -.00000011  00000+0  00000+0 0  9999
2 38740   0.0061  46.8790 0001069 137.8511 223.2248  1.00262160 50845
INTELSAT 21 (IS-21)     
1 38749U 12045A   26178.17892080 -.00000273  00000+0  00000+0 0  9993
2 38749   0.0262  70.5504 0001842  38.0811 173.0736  1.00271611 50629
INTELSAT 23 (IS-23)     
1 38867U 12057A   26178.17892080 -.00000273  00000+0  00000+0 0  9997
2 38867   0.0109  34.7254 0000234 124.5237 127.4437  1.00271327 50053
FM-6                    
1 39360U 13058A   26178.15530876 -.00000004  00000+0  00000+0 0  9990
2 39360   0.0161  44.1942 0001641 136.4962  34.1859  1.00271035 46175
INTELSAT 30 (IS-30)     
1 40271U 14062A   26178.14570720 -.00000139  00000+0  00000+0 0  9999
2 40271   0.0237  49.1135 0001502 345.5401 198.0098  1.00271975  6891
DIRECTV 14              
1 40333U 14078B   26178.14501387 -.00000114  00000+0  00000+0 0  9991
2 40333   0.0109  18.7265 0000271  23.4461 186.0549  1.00271001 42140
DIRECTV 15              
1 40663U 15026A   26178.14432051 -.00000091  00000+0  00000+0 0  9996
2 40663   0.0167  58.7063 0000425  10.0991 155.5353  1.00272582 40564
SKY MEXICO-1            
1 40664U 15026B   26178.19003037 -.00000223  00000+0  00000+0 0  9997
2 40664   0.0154 341.9092 0002591 130.6397 152.3678  1.00272001 40555
INTELSAT 34 (IS-34)     
1 40874U 15039A   26178.12753169 -.00000274  00000+0  00000+0 0  9991
2 40874   0.0102  13.0827 0000622  29.5062 223.0656  1.00273561 39734
INTELSAT 31 (IS-31)     
1 41581U 16035A   26178.14570720 -.00000139  00000+0  00000+0 0  9996
2 41581   0.0144 287.9612 0000598 337.3395 327.3625  1.00271659 36783
INTELSAT 36 (IS-36)     
1 41747U 16053A   26177.84712437 -.00000012  00000+0  00000+0 0  9999
2 41747   0.0108  13.4633 0001739 328.7334 306.2396  1.00266822 36054
INTELSAT 32E (IS-32E)   
1 41945U 17007B   26178.15613579 -.00000257  00000+0  00000+0 0  9992
2 41945   0.0065  35.0163 0000590 325.5426 287.7360  1.00270867 34321
INTELSAT 35E (IS-35E)   
1 42818U 17041A   26178.23472595  .00000000  00000+0  00000+0 0  9995
2 42818   0.0278  25.1749 0002393  72.4170 227.7690  1.00269079 32910
INTELSAT 37E (IS-37E)   
1 42950U 17059A   26178.16107580 -.00000129  00000+0  00000+0 0  9995
2 42950   0.0043  88.3882 0002893   6.2338 220.6422  1.00271499 32163
AZERSPACE 2 (IS-38)     
1 43632U 18074A   26178.17355587  .00000000  00000+0  00000+0 0  9991
2 43632   0.0274  17.8346 0001709  80.2276 284.8179  1.00270667 28541
HORIZONS-3E             
1 43633U 18074B   26177.91297288 -.00000019  00000+0  00000+0 0  9997
2 43633   0.0051 291.0865 0000627  17.8683 103.7557  1.00268864 28436
AT&T T-16               
1 44333U 19034A   26178.14466719 -.00000104  00000+0  00000+0 0  9990
2 44333   0.0172  59.8630 0000384 274.6069 252.0117  1.00270432 25733
INTELSAT 39 (IS-39)     
1 44476U 19049B   26178.17684921  .00000000  00000+0  00000+0 0  9998
2 44476   0.0261  10.2979 0000895 340.7590  49.8511  1.00270156 25225
GALAXY 30 (G-30)        
1 46114U 20056C   26178.10391876  .00000000  00000+0  00000+0 0  9996
2 46114   0.0282  20.8608 0002306  73.7740  92.9796  1.00270921 21392
GALAXY 33 (G-33)        
1 54026U 22128A   26178.23463074  .00000091  00000+0  00000+0 0  9993
2 54026   0.0045 359.8968 0002077  92.0496 134.8665  1.00271665 13849
GALAXY 34 (G-34)        
1 54027U 22128B   26178.10947644  .00000071  00000+0  00000+0 0  9998
2 54027   0.0106  40.0248 0001949  59.0162  86.5883  1.00267712 14011
GALAXY 31 (G-31)        
1 54243U 22153A   26178.10391876  .00000000  00000+0  00000+0 0  9998
2 54243   0.0202  25.5719 0001659  75.5418  90.5120  1.00270011  7235
GALAXY 32 (G-32)        
1 54244U 22153B   26178.14666052 -.00000163  00000+0  00000+0 0  9995
2 54244   0.0132  33.1835 0002070  14.2142 189.6632  1.00271923 13243
GALAXY 35 (G-35)        
1 54741U 22170A   26178.19558528  .00000000  00000+0  00000+0 0  9998
2 54741   0.0194  14.7684 0002229  80.8747 156.9672  1.00269512 12999
GALAXY 36 (G-36)        
1 54742U 22170B   26178.14700720 -.00000174  00000+0  00000+0 0  9990
2 54742   0.0347 120.3355 0002887 328.9772 149.8739  1.00271496 12879
GALAXY 37 (G-37)        
1 57493U 23112A   26178.10947644  .00000060  00000+0  00000+0 0  9990
2 57493   0.0155  53.7139 0002254  39.5005  94.4213  1.00271964 10648
